STARLINK-1019
1 44724U 19074M   26090.91671296  .00217158  00000+0  73679-3 0  9998
2 44724  53.0409  24.3839 0001581 195.5938  34.8541 15.88781197  6004
